LANDSAT 9               
1 49260U 21088A   24124.81042104  .00000497  00000+0  12038-3 0  9999
2 49260  98.1889 195.1762 0001383  88.5742 271.5615 14.57107380138236
